1 45405U 20019AX  23031.43066639 -.00000342  00000-0 -40373-5 0  9999
2 45405  53.0514 184.0259 0001332  81.2227 278.8913 15.06396662159050
1 45405U 20019AX  23031.76239747 -.00000822  00000-0 -36302-4 0  9996
2 45405  53.0514 182.5368 0001553  86.7239 273.3928 15.06402676159107
1 45405U 20019AX  23031.76239747 -.00000822  00000-0 -36302-4 0  9996
2 45405  53.0514 182.5368 0001553  86.7239 273.3928 15.06402676159107
1 45405U 20019AX  23032.42586944  .00000288  00000-0  38241-4 0  9992
2 45405  53.0516 179.5568 0001512  86.7002 273.4160 15.06395171159201
1 45405U 20019AX  23032.55856224  .00000303  00000-0  39274-4 0  9992
2 45405  53.0518 178.9597 0001460  96.2403 263.8752 15.06396050159220
1 45405U 20019AX  23033.55377185 -.00000290  00000-0 -60787-6 0  9999
2 45405  53.0512 174.4949 0001295  94.1935 265.9202 15.06391402159374
1 45405U 20019AX  23033.75281054  .00000256  00000-0  36097-4 0  9995
2 45405  53.0514 173.6008 0001472  93.3980 266.7178 15.06394018159402
1 45405U 20019AX  23034.08451143  .00004873  00000-0  34554-3 0  9994
2 45405  53.0520 172.1097 0001487  95.1898 264.9261 15.06427845159458
1 45405U 20019AX  23034.08451143  .00004873  00000-0  34554-3 0  9994
2 45405  53.0520 172.1097 0001487  95.1898 264.9261 15.06427845159458
1 45405U 20019AX  23034.74800627 -.00000284  00000-0 -20310-6 0  9994
2 45405  53.0526 169.1315 0001070 113.1187 246.9915 15.06396133159555
1 45405U 20019AX  23034.74800627 -.00000284  00000-0 -20310-6 0  9994
2 45405  53.0526 169.1315 0001070 113.1187 246.9915 15.06396133159555
1 45405U 20019AX  23035.54417727  .00000252  00000-0  35818-4 0  9998
2 45405  53.0523 165.5601 0001384  93.8856 266.2291 15.06390120159670
1 45405U 20019AX  23035.67686828 -.00000085  00000-0  13219-4 0  9998
2 45405  53.0526 164.9643 0001306  90.1080 270.0059 15.06395865159693
1 45405U 20019AX  23036.07494378 -.00003589  00000-0 -22215-3 0  9998
2 45405  53.0522 163.1769 0000782 100.4195 259.6882 15.06408861159753
1 45405U 20019AX  23036.53937573  .00000803  00000-0  72792-4 0  9998
2 45405  53.0524 161.0928 0000822 103.5267 256.5813 15.06391693159820
1 45405U 20019AX  23036.53937573  .00000803  00000-0  72792-4 0  9998
2 45405  53.0524 161.0928 0000822 103.5267 256.5813 15.06391693159820
1 45405U 20019AX  23036.60572406  .00001741  00000-0  13580-3 0  9997
2 45405  53.0527 160.7949 0001334  84.9631 275.1510 15.06389422159837
1 45405U 20019AX  23037.53457985  .00002156  00000-0  16358-3 0  9991
2 45405  53.0526 156.6232 0001121  97.1671 262.9445 15.06395231159970
1 45405U 20019AX  23037.60092251  .00001801  00000-0  13974-3 0  9997
2 45405  53.0522 156.3251 0001119  98.0271 262.0845 15.06402047159987
1 45405U 20019AX  23037.60092251  .00001801  00000-0  13974-3 0  9997
2 45405  53.0522 156.3251 0001119  98.0271 262.0845 15.06402047159987
1 45405U 20019AX  23038.59612452  .00001401  00000-0  11292-3 0  9994
2 45405  53.0525 151.8577 0001205  80.6739 279.4387 15.06405805160130
1 45405U 20019AX  23038.66246683  .00001637  00000-0  12873-3 0  9998
2 45405  53.0521 151.5580 0001101  93.3015 266.8100 15.06410278160144
1 45405U 20019AX  23038.66246683  .00001637  00000-0  12873-3 0  9998
2 45405  53.0521 151.5580 0001101  93.3015 266.8100 15.06410278160144
1 45405U 20019AX  23039.32595223 -.00000137  00000-0  96902-5 0  9991
2 45405  53.0522 148.5821 0001221  98.2207 261.8921 15.06390858160247
1 45405U 20019AX  23039.59133451  .00000690  00000-0  65231-4 0  9994
2 45405  53.0533 147.3921 0001141  99.4448 260.6670 15.06398577160286
1 45405U 20019AX  23039.59133451  .00000690  00000-0  65231-4 0  9994
2 45405  53.0533 147.3921 0001141  99.4448 260.6670 15.06398577160286
1 45405U 20019AX  23040.45384538 -.00001815  00000-0 -10300-3 0  9993
2 45405  53.0526 143.5161 0001125  85.9941 274.1176 15.06392071160411
1 45405U 20019AX  23040.58653822 -.00000148  00000-0  89323-5 0  9992
2 45405  53.0538 142.9188 0001135  83.4939 276.6180 15.06399986160433
1 45405U 20019AX  23040.98461904 -.00000977  00000-0 -46684-4 0  9997
2 45405  53.0529 141.1340 0001175  86.3656 273.7467 15.06396698160495
1 45405U 20019AX  23040.98461904 -.00000977  00000-0 -46684-4 0  9997
2 45405  53.0529 141.1340 0001175  86.3656 273.7467 15.06396698160495
1 45405U 20019AX  23041.58173670  .00002367  00000-0  17771-3 0  9991
2 45405  53.0523 138.4550 0000871  85.5397 274.5692 15.06405771160588
1 45405U 20019AX  23041.58173670  .00002367  00000-0  17771-3 0  9991
2 45405  53.0523 138.4550 0000871  85.5397 274.5692 15.06405771160588
1 45405U 20019AX  23041.97982499  .00000726  00000-0  67649-4 0  9998
2 45405  53.0536 136.6674 0001030  80.7151 279.3954 15.06399109160640
1 45405U 20019AX  23042.44425872  .00001253  00000-0  10304-3 0  9999
2 45405  53.0527 134.5854 0001321  85.2036 274.9104 15.06393246160714
1 45405U 20019AX  23042.51059785  .00000681  00000-0  64574-4 0  9996
2 45405  53.0540 134.2847 0001313 104.5879 255.5256 15.06405281160726
1 45405U 20019AX  23042.51059785  .00000681  00000-0  64574-4 0  9996
2 45405  53.0540 134.2847 0001313 104.5879 255.5256 15.06405281160726
1 45405U 20019AX  23043.24042431  .00001530  00000-0  12159-3 0  9992
2 45405  53.0526 131.0102 0001357  72.9819 287.1318 15.06390708160838
1 45405U 20019AX  23043.50580949  .00001918  00000-0  14765-3 0  9997
2 45405  53.0525 129.8190 0001252  75.6021 284.5107 15.06394666160876
1 45405U 20019AX  23043.63849918  .00000399  00000-0  45709-4 0  9990
2 45405  53.0515 129.2221 0001461  80.7612 279.3542 15.06404455160894
1 45405U 20019AX  23044.50101323  .00001913  00000-0  14729-3 0  9998
2 45405  53.0530 125.3496 0001232  54.6735 305.4369 15.06393638161028
1 45405U 20019AX  23044.50101323  .00001913  00000-0  14729-3 0  9998
2 45405  53.0530 125.3496 0001232  54.6735 305.4369 15.06393638161028
1 45405U 20019AX  23044.56735667  .00000768  00000-0  70436-4 0  9993
2 45405  53.0532 125.0510 0001209  64.1425 295.9689 15.06401110161034
1 45405U 20019AX  23045.36352523  .00002063  00000-0  15740-3 0  9994
2 45405  53.0529 121.4758 0001376  56.2694 303.8426 15.06390614161156
1 45405U 20019AX  23045.36352523  .00002063  00000-0  15740-3 0  9994
2 45405  53.0529 121.4758 0001376  56.2694 303.8426 15.06390614161156
1 45405U 20019AX  23045.56256017  .00000896  00000-0  79023-4 0  9994
2 45405  53.0524 120.5833 0001576  60.6997 299.4150 15.06400711161189
1 45405U 20019AX  23045.56256017  .00000896  00000-0  79023-4 0  9994
2 45405  53.0524 120.5833 0001576  60.6997 299.4150 15.06400711161189
1 45405U 20019AX  23046.35872491  .00000621  00000-0  60609-4 0  9998
2 45405  53.0532 117.0081 0001569  54.9956 305.1180 15.06395940161306
1 45405U 20019AX  23046.49140475  .00002833  00000-0  20896-3 0  9993
2 45405  53.0528 116.4118 0001473  52.2260 307.8862 15.06412041161328
1 45405U 20019AX  23046.49140475  .00002833  00000-0  20896-3 0  9993
2 45405  53.0528 116.4118 0001473  52.2260 307.8862 15.06412041161328
1 45405U 20019AX  23046.62409670  .00002878  00000-0  21197-3 0  9997
2 45405  53.0528 115.8163 0001475  53.4571 306.6554 15.06413123161340
1 45405U 20019AX  23046.95585210 -.00000230  00000-0  34840-5 0  9990
2 45405  53.0523 114.3281 0001446  39.4514 320.6580 15.06387850161396
1 45405U 20019AX  23047.55294788  .00001071  00000-0  90717-4 0  9991
2 45405  53.0534 111.6463 0000868  71.9867 288.1217 15.06418126161485
1 45405U 20019AX  23047.55294788  .00001071  00000-0  90717-4 0  9991
2 45405  53.0534 111.6463 0000868  71.9867 288.1217 15.06418126161485
1 45405U 20019AX  23048.15009385 -.00000754  00000-0 -31759-4 0  9995
2 45405  53.0529 108.9707 0001393  80.6631 279.4515 15.06388591161575
1 45405U 20019AX  23048.48182928 -.00002646  00000-0 -15886-3 0  9990
2 45405  53.0528 107.4764 0001218  84.3936 275.7192 15.06393089161620
1 45405U 20019AX  23049.41069138 -.00001117  00000-0 -56121-4 0  9991
2 45405  53.0527 103.3068 0001406 113.9342 246.1794 15.06386942161765
1 45405U 20019AX  23049.54337774 -.00001432  00000-0 -77243-4 0  9997
2 45405  53.0522 102.7112 0001202  94.7309 265.3818 15.06401164161782
1 45405U 20019AX  23049.87510468 -.00000290  00000-0 -57497-6 0  9998
2 45405  53.0520 101.2221 0001182  85.9464 274.1660 15.06408306161830
1 45405U 20019AX  23050.47222022  .00006012  00000-0  42204-3 0  9995
2 45405  53.0529  98.5409 0001055  93.1636 266.9474 15.06409821161921
1 45405U 20019AX  23051.33474905 -.00000801  00000-0 -34877-4 0  9990
2 45405  53.0524  94.6696 0001176  79.8187 280.2935 15.06392292162056
1 45405U 20019AX  23051.46743818 -.00001367  00000-0 -72879-4 0  9998
2 45405  53.0520  94.0737 0001261  85.4098 274.7035 15.06396958162075
1 45405U 20019AX  23051.79917157  .00005713  00000-0  40205-3 0  9997
2 45405  53.0514  92.5850 0001308  87.3387 272.7752 15.06404669162120
1 45405U 20019AX  23052.52898056  .00020445  00000-0  13863-2 0  9993
2 45405  53.0514  89.3081 0001397  91.5464 268.5685 15.06430169162235
1 45405U 20019AX  23052.79437162 -.00006026  00000-0 -38609-3 0  9996
2 45405  53.0517  88.1162 0001139 105.9323 254.1791 15.06394153162278
1 45405U 20019AX  23052.79437162 -.00006026  00000-0 -38609-3 0  9996
2 45405  53.0517  88.1162 0001139 105.9323 254.1791 15.06394153162278
1 45405U 20019AX  23053.45784736  .00016720  00000-0  11390-2 0  9999
2 45405  53.0511  85.1383 0001532 103.1425 256.9735 15.06389131162373
1 45405U 20019AX  23053.59054243  .00016613  00000-0  11318-2 0  9998
2 45405  53.0510  84.5423 0001698  99.9670 260.1511 15.06391840162398
1 45405U 20019AX  23054.05496701  .00018455  00000-0  12542-2 0  9995
2 45405  53.0510  82.4571 0001299 103.4073 256.7061 15.06411030162467
1 45405U 20019AX  23054.38669647  .00022358  00000-0  15140-2 0  9996
2 45405  53.0510  80.9679 0001581 104.0864 256.0300 15.06427145162517
1 45405U 20019AX  23054.78478077 -.00006680  00000-0 -43009-3 0  9993
2 45405  53.0511  79.1804 0001415 102.2726 257.8421 15.06390338162573
1 45405U 20019AX  23055.05017060 -.00001208  00000-0 -62254-4 0  9990
2 45405  53.0516  77.9883 0001597  95.8467 264.2704 15.06392607162613
